{"spkid": "54280489", "covariance": {"epoch": "2459065.5", "elements": [{"label": "e", "units": null, "value": ".6369608850327736", "title": "eccentricity", "sigma": 8.11679113726547e-08, "name": "e"}, {"title": "perihelion distance", "value": ".8329138098725318", "units": "au", "sigma": 1.85611985411815e-07, "name": "q", "label": "q"}, {"label": "tp", "title": "time of perihelion passage", "value": "2458633.261036476081", "units": "TDB", "name": "tp", "sigma": 0.000191306324182461}, {"label": "node", "name": "om", "sigma": 6.14436240424243e-05, "title": "longitude of the ascending node", "value": "110.5933422708015", "units": "deg"}, {"sigma": 6.33946349203292e-05, "name": "w", "units": "deg", "title": "argument of perihelion", "value": "248.0508462591291", "label": "peri"}, {"label": "i", "title": "inclination", "value": "10.30046609446831", "units": "deg", "sigma": 9.03307341660917e-06, "name": "i"}], "data": [["6.58822983659913E-15", "-1.492860892308332E-14", "-7.553785970331807E-12", "-4.063269974841463E-13", "-6.117637967568692E-13", "-8.703297711524541E-14"], ["-1.492860892308332E-14", "3.445180912851576E-14", "1.472103851797599E-11", "8.266697208902304E-13", "1.147631593569311E-12", "1.730868473143138E-13"], ["-7.553785970331807E-12", "1.472103851797599E-11", "3.659810967220475E-8", "1.986070519909189E-9", "3.90823417590338E-9", "4.874389761928212E-10"], ["-4.063269974841463E-13", "8.266697208902304E-13", "1.986070519909189E-9", "3.775318935466781E-9", "-3.390677874314545E-9", "-1.415347069785703E-10"], ["-6.117637967568692E-13", "1.147631593569311E-12", "3.90823417590338E-9", "-3.390677874314545E-9", "4.018879736681821E-9", "2.191397783155718E-10"], ["-8.703297711524541E-14", "1.730868473143138E-13", "4.874389761928212E-10", "-1.415347069785703E-10", "2.191397783155718E-10", "8.159641534985134E-11"]], "labels": ["e", "q", "tp", "node", "peri", "i"]}, "elements": [{"label": "e", "name": "e", "sigma": "8.1111E-8", "value": ".636740789699737", "title": "eccentricity", "units": null}, {"units": "au", "value": "2.294416624833333", "title": "semi-major axis", "sigma": "6.936E-8", "name": "a", "label": "a"}, {"label": "q", "sigma": "1.853E-7", "name": "q", "units": "au", "title": "perihelion distance", "value": ".8334679712367511"}, {"value": "10.29709757694326", "title": "inclination; angle with respect to x-y ecliptic plane", "units": "deg", "sigma": "9.0333E-6", "name": "i", "label": "i"}, {"label": "node", "sigma": "6.1471E-5", "name": "om", "units": "deg", "value": "110.5381414606063", "title": "longitude of the ascending node"}, {"name": "w", "sigma": "6.342E-5", "units": "deg", "value": "248.1340498350434", "title": "argument of perihelion", "label": "peri"}, {"name": "ma", "sigma": "4.5446E-5", "units": "deg", "title": "mean anomaly", "value": "8.229936206740899", "label": "M"}, {"name": "tp", "sigma": ".00016018", "units": "TDB", "value": "2461171.479772269603", "title": "time of perihelion passage", "label": "tp"}, {"name": "per", "sigma": "5.7562E-5", "value": "1269.424418428177", "title": "sidereal orbital period", "units": "d", "label": "period"}, {"name": "n", "sigma": "1.286E-8", "units": "deg/d", "value": ".2835930952437153", "title": "mean motion", "label": "n"}, {"label": "Q", "units": "au", "value": "3.755365278429914", "title": "aphelion distance", "sigma": "1.1352E-7", "name": "ad"}], "epoch": "2461200.5"}